INTELSAT 33E        [PM]
1 41748C 16053B   22323.47746528  .00000139  00000-0  00000-0 0  3238
2 41748   0.0511 102.2852 0001597 302.7213 245.3838  1.00270739    16
INTELSAT 32E            
1 41945C 17007B   22318.00000000 -.00000208  00000-0  00000-0 0  3180
2 41945   0.0001 326.0349 0000200 249.1380 154.7562  1.00270227    14
INTELSAT 32E        [PM]
1 41945C 17007B   22320.09858796 -.00000178  00000-0  00000-0 0  3204
2 41945   0.0084   2.1392 0000124 258.8882 146.4502  1.00273758    18
INTELSAT 32E            
1 41945C 17007B   22321.00000000 -.00000197  00000-0  00000-0 0  3215
2 41945   0.0001 328.4266 0000082 296.5950 107.8632  1.00270320    16
INTELSAT 35E            
1 42818C 17041A   22318.00000000 -.00000148  00000-0  00000-0 0  3181
2 42818   0.0042 293.4530 0001953 305.8446 139.3168  1.00271166    11
INTELSAT 35E            
1 42818C 17041A   22321.00000000 -.00000147  00000-0  00000-0 0  3218
2 42818   0.0000 278.6439 0001824 318.5505 144.3934  1.00272585    15
INTELSAT 35E        [PM]
1 42818C 17041A   22324.23840278 -.00000148  00000-0  00000-0 0  3249
2 42818   0.0256 281.8112 0001467 316.1828 232.6184  1.00271540    15
INTELSAT 37E            
1 42950C 17059A   22318.00000000 -.00000050  00000-0  00000-0 0  3189
2 42950   0.0045 291.6750 0003066 303.7878 159.6467  1.00271059    16
INTELSAT 37E            
1 42950C 17059A   22321.00000000 -.00000050  00000-0  00000-0 0  3217
2 42950   0.0002 280.6423 0002769 315.5432 161.8791  1.00272697    14
INTELSAT 37E        [PM]
1 42950C 17059A   22324.69305556 -.00000050  00000-0  00000-0 0  3242
2 42950   0.0094 292.8052 0002556 299.5818  58.8338  1.00271614    11
AZERSPACE 2 (IS-38)     
1 43632C 18074A   22318.00000000  .00000160  00000-0  00000-0 0  3186
2 43632   0.0000 281.5131 0001752 322.9413 213.7718  1.00270099    18
AZERSPACE 2 (IS-38)     
1 43632C 18074A   22321.00000000  .00000215  00000-0  00000-0 0  3215
2 43632   0.0000 258.3952 0001632 354.6198 208.1684  1.00271200    15
HORIZONS-3E             
1 43633C 18074B   22318.00000000  .00000066  00000-0  00000-0 0  3182
2 43633   0.0409 103.1276 0001778 180.4375 298.5482  1.00270429    19
HORIZONS-3E             
1 43633C 18074B   22321.00000000  .00000063  00000-0  00000-0 0  3217
2 43633   0.0366 102.2603 0001522 186.3549 296.4635  1.00269957    11
INTELSAT 39 (IS-39)     
1 44476C 19049B   22318.00000000  .00000058  00000-0  00000-0 0  3182
2 44476   0.0075 287.6849 0000247 249.8087 297.5642  1.00270887    13
INTELSAT 39 (IS-39)     
1 44476C 19049B   22321.00000000  .00000041  00000-0  00000-0 0  3212
2 44476   0.0088 276.8392 0000219 220.2422 340.9310  1.00270263    18
INTELSAT 39 (IS-39) [PM]
1 44476C 19049B   22321.00706019  .00000123  00000-0  00000-0 0  3216
2 44476   0.0163 278.1848 0000418 200.7142   1.6658  1.00271794    12
GALAXY 30 (G-30)        
1 46114C 20056C   22318.00000000  .00000129  00000-0  00000-0 0  3182
2 46114   0.0348 110.0155 0002291 120.8325  57.2734  1.00270823    13
GALAXY 30 (G-30)        
1 46114C 20056C   22321.00000000  .00000127  00000-0  00000-0 0  3218
2 46114   0.0125 278.6136 0002108 312.7537  59.7090  1.00269913    10
GALAXY 30 (G-30)    [PM]
1 46114C 20056C   22321.95486111  .00000127  00000-0  00000-0 0  3213
2 46114   0.0109 279.3587 0002008 311.4236  44.9817  1.00270023    18
GALAXY 33               
1 54026C 22128A   22318.00000000  .00000169  00000-0  00000-0 0  3189
2 54026   0.0385 101.9978 0002630 141.1375  36.9665  1.00271345    12
GALAXY 33               
1 54026C 22128A   22321.00000000  .00000092  00000-0  00000-0 0  3212
2 54026   0.0157  43.3776 0002502 202.8433  36.8503  1.00272472    14
GALAXY 33           [PM]
1 54026C 22128A   22324.43938657  .00000265  00000-0  00000-0 0  3245
2 54026   0.0274  52.7199 0002097 189.0560 202.8862  1.00269877    11
